[{"OBJECT_NAME":"OPS 7218 (TRANSIT 16)","OBJECT_ID":"1967-048A","EPOCH":"2026-04-04T06:54:22.082112","MEAN_MOTION":13.5075094,"ECCENTRICITY":0.0020973,"INCLINATION":89.6794,"RA_OF_ASC_NODE":350.3389,"ARG_OF_PERICENTER":145.5952,"MEAN_ANOMALY":337.756,"EPHEMERIS_TYPE":0,"CLASSIFICATION_TYPE":"U","NORAD_CAT_ID":2807,"ELEMENT_SET_NO":999,"REV_AT_EPOCH":89795,"BSTAR":0.00026147968,"MEAN_MOTION_DOT":1.79e-6,"MEAN_MOTION_DDOT":0},{"OBJECT_NAME":"OPS 4947 (TRANSIT 17)","OBJECT_ID":"1967-092A","EPOCH":"2026-04-04T06:24:15.622272","MEAN_MOTION":13.53484632,"ECCENTRICITY":0.00455955,"INCLINATION":89.259,"RA_OF_ASC_NODE":15.8874,"ARG_OF_PERICENTER":269.646,"MEAN_ANOMALY":202.3703,"EPHEMERIS_TYPE":0,"CLASSIFICATION_TYPE":"U","NORAD_CAT_ID":2965,"ELEMENT_SET_NO":999,"REV_AT_EPOCH":88619,"BSTAR":0.00023785899,"MEAN_MOTION_DOT":1.72e-6,"MEAN_MOTION_DDOT":0},{"OBJECT_NAME":"OPS 7034 (TRANSIT 18)","OBJECT_ID":"1968-012A","EPOCH":"2026-04-04T00:33:50.611680","MEAN_MOTION":13.51595326,"ECCENTRICITY":0.00730867,"INCLINATION":90.0205,"RA_OF_ASC_NODE":273.9221,"ARG_OF_PERICENTER":203.9475,"MEAN_ANOMALY":269.7554,"EPHEMERIS_TYPE":0,"CLASSIFICATION_TYPE":"U","NORAD_CAT_ID":3133,"ELEMENT_SET_NO":999,"REV_AT_EPOCH":58435,"BSTAR":0.00023178425,"MEAN_MOTION_DOT":1.63e-6,"MEAN_MOTION_DDOT":0},{"OBJECT_NAME":"NNSS 19 (TRANSIT 19)","OBJECT_ID":"1970-067A","EPOCH":"2026-04-03T22:51:49.472352","MEAN_MOTION":13.5134471,"ECCENTRICITY":0.01705495,"INCLINATION":90.0108,"RA_OF_ASC_NODE":234.6047,"ARG_OF_PERICENTER":328.2902,"MEAN_ANOMALY":30.8064,"EPHEMERIS_TYPE":0,"CLASSIFICATION_TYPE":"U","NORAD_CAT_ID":4507,"ELEMENT_SET_NO":999,"REV_AT_EPOCH":73737,"BSTAR":0.00019569203,"MEAN_MOTION_DOT":1.47e-6,"MEAN_MOTION_DDOT":0},{"OBJECT_NAME":"NNSS 20 (TRANSIT 20)","OBJECT_ID":"1973-081A","EPOCH":"2026-04-04T04:32:54.404448","MEAN_MOTION":13.71486911,"ECCENTRICITY":0.01565571,"INCLINATION":89.8544,"RA_OF_ASC_NODE":253.3384,"ARG_OF_PERICENTER":100.9952,"MEAN_ANOMALY":260.8866,"EPHEMERIS_TYPE":0,"CLASSIFICATION_TYPE":"U","NORAD_CAT_ID":6909,"ELEMENT_SET_NO":999,"REV_AT_EPOCH":81902,"BSTAR":0.00028398581,"MEAN_MOTION_DOT":2.91e-6,"MEAN_MOTION_DDOT":0},{"OBJECT_NAME":"TRANSAT","OBJECT_ID":"1977-106A","EPOCH":"2026-04-04T05:25:08.282784","MEAN_MOTION":13.48961918,"ECCENTRICITY":0.00239364,"INCLINATION":89.6425,"RA_OF_ASC_NODE":74.553,"ARG_OF_PERICENTER":226.1561,"MEAN_ANOMALY":145.0726,"EPHEMERIS_TYPE":0,"CLASSIFICATION_TYPE":"U","NORAD_CAT_ID":10457,"ELEMENT_SET_NO":999,"REV_AT_EPOCH":38260,"BSTAR":0.00011659594,"MEAN_MOTION_DOT":8.3e-7,"MEAN_MOTION_DDOT":0},{"OBJECT_NAME":"NOVA 1","OBJECT_ID":"1981-044A","EPOCH":"2026-04-03T22:36:14.163840","MEAN_MOTION":13.23290572,"ECCENTRICITY":0.00151338,"INCLINATION":89.8421,"RA_OF_ASC_NODE":89.7329,"ARG_OF_PERICENTER":148.3119,"MEAN_ANOMALY":272.1922,"EPHEMERIS_TYPE":0,"CLASSIFICATION_TYPE":"U","NORAD_CAT_ID":12458,"ELEMENT_SET_NO":999,"REV_AT_EPOCH":16670,"BSTAR":0.00017141019,"MEAN_MOTION_DOT":8.2e-7,"MEAN_MOTION_DDOT":0},{"OBJECT_NAME":"NOVA 3","OBJECT_ID":"1984-110A","EPOCH":"2026-04-04T04:54:47.132352","MEAN_MOTION":13.23060944,"ECCENTRICITY":0.00323149,"INCLINATION":90.1142,"RA_OF_ASC_NODE":81.7946,"ARG_OF_PERICENTER":22.6986,"MEAN_ANOMALY":348.2586,"EPHEMERIS_TYPE":0,"CLASSIFICATION_TYPE":"U","NORAD_CAT_ID":15362,"ELEMENT_SET_NO":999,"REV_AT_EPOCH":185,"BSTAR":0.00018571777,"MEAN_MOTION_DOT":8.7e-7,"MEAN_MOTION_DDOT":0},{"OBJECT_NAME":"OSCAR 30","OBJECT_ID":"1985-066A","EPOCH":"2026-04-04T01:50:40.298784","MEAN_MOTION":13.36099812,"ECCENTRICITY":0.01693659,"INCLINATION":90.1523,"RA_OF_ASC_NODE":101.6177,"ARG_OF_PERICENTER":126.3516,"MEAN_ANOMALY":301.6137,"EPHEMERIS_TYPE":0,"CLASSIFICATION_TYPE":"U","NORAD_CAT_ID":15935,"ELEMENT_SET_NO":999,"REV_AT_EPOCH":97953,"BSTAR":0.00017447286,"MEAN_MOTION_DOT":1.07e-6,"MEAN_MOTION_DDOT":0},{"OBJECT_NAME":"OSCAR 24","OBJECT_ID":"1985-066B","EPOCH":"2026-04-03T22:08:55.229280","MEAN_MOTION":13.35957144,"ECCENTRICITY":0.01702223,"INCLINATION":90.1675,"RA_OF_ASC_NODE":94.2212,"ARG_OF_PERICENTER":133.2495,"MEAN_ANOMALY":292.336,"EPHEMERIS_TYPE":0,"CLASSIFICATION_TYPE":"U","NORAD_CAT_ID":15936,"ELEMENT_SET_NO":999,"REV_AT_EPOCH":98141,"BSTAR":0.0001610328,"MEAN_MOTION_DOT":1.0e-6,"MEAN_MOTION_DDOT":0},{"OBJECT_NAME":"POLAR BEAR","OBJECT_ID":"1986-088A","EPOCH":"2026-04-04T05:47:33.605952","MEAN_MOTION":13.75276033,"ECCENTRICITY":0.00408903,"INCLINATION":89.6253,"RA_OF_ASC_NODE":179.3157,"ARG_OF_PERICENTER":139.1369,"MEAN_ANOMALY":274.979,"EPHEMERIS_TYPE":0,"CLASSIFICATION_TYPE":"U","NORAD_CAT_ID":17070,"ELEMENT_SET_NO":999,"REV_AT_EPOCH":97525,"BSTAR":0.00014457506,"MEAN_MOTION_DOT":1.51e-6,"MEAN_MOTION_DDOT":0},{"OBJECT_NAME":"OSCAR 27","OBJECT_ID":"1987-080A","EPOCH":"2026-04-03T23:02:53.442528","MEAN_MOTION":13.44929063,"ECCENTRICITY":0.01017774,"INCLINATION":90.3659,"RA_OF_ASC_NODE":83.4039,"ARG_OF_PERICENTER":263.0914,"MEAN_ANOMALY":95.8647,"EPHEMERIS_TYPE":0,"CLASSIFICATION_TYPE":"U","NORAD_CAT_ID":18361,"ELEMENT_SET_NO":999,"REV_AT_EPOCH":89065,"BSTAR":0.00017679484,"MEAN_MOTION_DOT":1.14e-6,"MEAN_MOTION_DDOT":0},{"OBJECT_NAME":"OSCAR 29","OBJECT_ID":"1987-080B","EPOCH":"2026-04-04T05:19:12.400320","MEAN_MOTION":13.4446873,"ECCENTRICITY":0.01034325,"INCLINATION":90.3667,"RA_OF_ASC_NODE":83.8808,"ARG_OF_PERICENTER":286.1004,"MEAN_ANOMALY":83.8484,"EPHEMERIS_TYPE":0,"CLASSIFICATION_TYPE":"U","NORAD_CAT_ID":18362,"ELEMENT_SET_NO":999,"REV_AT_EPOCH":89021,"BSTAR":0.00012661407,"MEAN_MOTION_DOT":8.3e-7,"MEAN_MOTION_DDOT":0},{"OBJECT_NAME":"OSCAR 23","OBJECT_ID":"1988-033A","EPOCH":"2026-04-04T06:40:08.845824","MEAN_MOTION":13.27807086,"ECCENTRICITY":0.01878221,"INCLINATION":90.3325,"RA_OF_ASC_NODE":19.9243,"ARG_OF_PERICENTER":227.1302,"MEAN_ANOMALY":288.9307,"EPHEMERIS_TYPE":0,"CLASSIFICATION_TYPE":"U","NORAD_CAT_ID":19070,"ELEMENT_SET_NO":999,"REV_AT_EPOCH":83746,"BSTAR":0.00021921169,"MEAN_MOTION_DOT":1.16e-6,"MEAN_MOTION_DDOT":0},{"OBJECT_NAME":"OSCAR 32","OBJECT_ID":"1988-033B","EPOCH":"2026-04-04T07:25:19.069536","MEAN_MOTION":13.27971101,"ECCENTRICITY":0.01864909,"INCLINATION":90.3329,"RA_OF_ASC_NODE":20.0631,"ARG_OF_PERICENTER":213.7053,"MEAN_ANOMALY":269.5346,"EPHEMERIS_TYPE":0,"CLASSIFICATION_TYPE":"U","NORAD_CAT_ID":19071,"ELEMENT_SET_NO":999,"REV_AT_EPOCH":83759,"BSTAR":0.00012557615,"MEAN_MOTION_DOT":7.0e-7,"MEAN_MOTION_DDOT":0},{"OBJECT_NAME":"NOVA 2","OBJECT_ID":"1988-052A","EPOCH":"2026-04-04T05:12:47.651616","MEAN_MOTION":13.22951199,"ECCENTRICITY":0.00322156,"INCLINATION":89.9803,"RA_OF_ASC_NODE":78.0712,"ARG_OF_PERICENTER":65.05,"MEAN_ANOMALY":306.0896,"EPHEMERIS_TYPE":0,"CLASSIFICATION_TYPE":"U","NORAD_CAT_ID":19223,"ELEMENT_SET_NO":999,"REV_AT_EPOCH":82435,"BSTAR":0.00019863575,"MEAN_MOTION_DOT":9.3e-7,"MEAN_MOTION_DDOT":0},{"OBJECT_NAME":"OSCAR 25","OBJECT_ID":"1988-074A","EPOCH":"2026-04-04T07:12:40.418784","MEAN_MOTION":13.42647211,"ECCENTRICITY":0.0094277,"INCLINATION":90.0452,"RA_OF_ASC_NODE":20.6507,"ARG_OF_PERICENTER":285.7228,"MEAN_ANOMALY":246.2951,"EPHEMERIS_TYPE":0,"CLASSIFICATION_TYPE":"U","NORAD_CAT_ID":19419,"ELEMENT_SET_NO":999,"REV_AT_EPOCH":84150,"BSTAR":0.00021129505,"MEAN_MOTION_DOT":1.31e-6,"MEAN_MOTION_DDOT":0}]
