OPS 7218 (TRANSIT 16)   
1 02807U 67048A   26094.28775558  .00000179  00000+0  26148-3 0  9990
2 02807  89.6794 350.3389 0020973 145.5952 337.7560 13.50750940897958
OPS 4947 (TRANSIT 17)   
1 02965U 67092A   26094.26684748  .00000172  00000+0  23786-3 0  9990
2 02965  89.2590  15.8874 0045595 269.6460 202.3703 13.53484632886199
OPS 7034 (TRANSIT 18)   
1 03133U 68012A   26094.02350245  .00000163  00000+0  23178-3 0  9992
2 03133  90.0205 273.9221 0073086 203.9475 269.7554 13.51595326584351
NNSS 19 (TRANSIT 19)    
1 04507U 70067A   26093.95265593  .00000147  00000+0  19569-3 0  9994
2 04507  90.0108 234.6047 0170549 328.2902  30.8064 13.51344710737371
NNSS 20 (TRANSIT 20)    
1 06909U 73081A   26094.18951857  .00000291  00000+0  28399-3 0  9993
2 06909  89.8544 253.3384 0156557 100.9952 260.8866 13.71486911819024
TRANSAT                 
1 10457U 77106A   26094.22579031  .00000083  00000+0  11660-3 0  9995
2 10457  89.6425  74.5530 0023936 226.1561 145.0726 13.48961918382607
NOVA 1                  
1 12458U 81044A   26093.94183060  .00000082  00000+0  17141-3 0  9994
2 12458  89.8421  89.7329 0015133 148.3119 272.1922 13.23290572166701
NOVA 3                  
1 15362U 84110A   26094.20471218  .00000087  00000+0  18572-3 0  9997
2 15362  90.1142  81.7946 0032314  22.6986 348.2586 13.23060944  1859
OSCAR 30                
1 15935U 85066A   26094.07685531  .00000107  00000+0  17447-3 0  9997
2 15935  90.1523 101.6177 0169365 126.3516 301.6137 13.36099812979538
OSCAR 24                
1 15936U 85066B   26093.92286145  .00000100  00000+0  16103-3 0  9990
2 15936  90.1675  94.2212 0170222 133.2495 292.3360 13.35957144981415
POLAR BEAR              
1 17070U 86088A   26094.24136118  .00000151  00000+0  14458-3 0  9993
2 17070  89.6253 179.3157 0040890 139.1369 274.9790 13.75276033975259
OSCAR 27                
1 18361U 87080A   26093.96034077  .00000114  00000+0  17679-3 0  9996
2 18361  90.3659  83.4039 0101777 263.0914  95.8647 13.44929063890656
OSCAR 29                
1 18362U 87080B   26094.22167130  .00000083  00000+0  12661-3 0  9995
2 18362  90.3667  83.8808 0103432 286.1004  83.8484 13.44468730890217
OSCAR 23                
1 19070U 88033A   26094.27788016  .00000116  00000+0  21921-3 0  9994
2 19070  90.3325  19.9243 0187822 227.1302 288.9307 13.27807086837461
OSCAR 32                
1 19071U 88033B   26094.30924849  .00000070  00000+0  12558-3 0  9990
2 19071  90.3329  20.0631 0186490 213.7053 269.5346 13.27971101837596
NOVA 2                  
1 19223U 88052A   26094.21721819  .00000093  00000+0  19864-3 0  9994
2 19223  89.9803  78.0712 0032215  65.0500 306.0896 13.22951199824356
OSCAR 25                
1 19419U 88074A   26094.30046781  .00000131  00000+0  21130-3 0  9995
2 19419  90.0452  20.6507 0094277 285.7228 246.2951 13.42647211841507
